{
  "norad_id": 62863,
  "name": "STARLINK-32808",
  "history": [
    {
      "epoch": "2026-03-28T20:46:28.480224Z",
      "apogee_km": 476.4876531451473,
      "perigee_km": 474.28876811656755,
      "latitude_deg": -4.505007120813178e-05,
      "longitude_deg": -97.18751866897986,
      "height_km": 476.2857807608655,
      "semi_major_axis_km": 6853.525210630857,
      "eccentricity": 0.00016042,
      "inclination_deg": 53.1628,
      "raan_deg": 40.7111,
      "arg_perigee_deg": 89.9831,
      "mean_anomaly_deg": 270.1353,
      "mean_motion_rev_day": 15.30142014
    },
    {
      "epoch": "2026-03-29T03:02:41.651808Z",
      "apogee_km": 476.9095330810924,
      "perigee_km": 473.62127060868806,
      "latitude_deg": -1.5762665954889222e-05,
      "longitude_deg": 167.28730844552143,
      "height_km": 476.4245731334547,
      "semi_major_axis_km": 6853.40240184489,
      "eccentricity": 0.0002399,
      "inclination_deg": 53.1623,
      "raan_deg": 39.4983,
      "arg_perigee_deg": 99.1852,
      "mean_anomaly_deg": 260.942,
      "mean_motion_rev_day": 15.30183143
    },
    {
      "epoch": "2026-03-30T02:33:28.323648Z",
      "apogee_km": 476.10174395073136,
      "perigee_km": 474.2623131234732,
      "latitude_deg": -3.351496348252175e-05,
      "longitude_deg": 169.076086651886,
      "height_km": 475.97091012106904,
      "semi_major_axis_km": 6853.319028537102,
      "eccentricity": 0.0001342,
      "inclination_deg": 53.1622,
      "raan_deg": 34.9472,
      "arg_perigee_deg": 83.1713,
      "mean_anomaly_deg": 276.944,
      "mean_motion_rev_day": 15.30211066
    },
    {
      "epoch": "2026-03-30T05:41:34.562112Z",
      "apogee_km": 476.01176568745177,
      "perigee_km": 474.318999998889,
      "latitude_deg": -1.3376739706144243e-05,
      "longitude_deg": 121.3141556097155,
      "height_km": 475.9596517037977,
      "semi_major_axis_km": 6853.302382843171,
      "eccentricity": 0.0001235,
      "inclination_deg": 53.1614,
      "raan_deg": 34.34,
      "arg_perigee_deg": 82.94,
      "mean_anomaly_deg": 277.1741,
      "mean_motion_rev_day": 15.30216641
    },
    {
      "epoch": "2026-03-30T19:48:02.936736Z",
      "apogee_km": 475.7282887905194,
      "perigee_km": 474.46660832854013,
      "latitude_deg": 1.5093889234691826e-05,
      "longitude_deg": -93.61214021957836,
      "height_km": 475.62408552788474,
      "semi_major_axis_km": 6853.2344485595295,
      "eccentricity": 9.205e-05,
      "inclination_deg": 53.1613,
      "raan_deg": 31.6113,
      "arg_perigee_deg": 53.8311,
      "mean_anomaly_deg": 306.2775,
      "mean_motion_rev_day": 15.30239394
    },
    {
      "epoch": "2026-03-31T19:18:51.150816Z",
      "apogee_km": 476.43615733397655,
      "perigee_km": 473.9182496956046,
      "latitude_deg": -1.724669909954145e-05,
      "longitude_deg": -91.82861571022842,
      "height_km": 475.9017701586245,
      "semi_major_axis_km": 6853.31420351479,
      "eccentricity": 0.0001837,
      "inclination_deg": 53.162,
      "raan_deg": 27.0614,
      "arg_perigee_deg": 82.1035,
      "mean_anomaly_deg": 278.0174,
      "mean_motion_rev_day": 15.30212682
    },
    {
      "epoch": "2026-04-01T12:33:26.112096Z",
      "apogee_km": 475.99103409259624,
      "perigee_km": 474.3380177645413,
      "latitude_deg": 2.651730827825816e-06,
      "longitude_deg": 5.479381346027949,
      "height_km": 475.9656819823719,
      "semi_major_axis_km": 6853.3015259285685,
      "eccentricity": 0.0001206,
      "inclination_deg": 53.1621,
      "raan_deg": 23.7232,
      "arg_perigee_deg": 83.2426,
      "mean_anomaly_deg": 276.8712,
      "mean_motion_rev_day": 15.30216928
    },
    {
      "epoch": "2026-04-02T12:04:13.794816Z",
      "apogee_km": 476.1194192603398,
      "perigee_km": 474.2224236276852,
      "latitude_deg": -2.1820253395655473e-05,
      "longitude_deg": 7.264831385844512,
      "height_km": 476.09735926474747,
      "semi_major_axis_km": 6853.307921444012,
      "eccentricity": 0.0001384,
      "inclination_deg": 53.161,
      "raan_deg": 19.173,
      "arg_perigee_deg": 91.716,
      "mean_anomaly_deg": 268.3999,
      "mean_motion_rev_day": 15.30214786
    },
    {
      "epoch": "2026-04-02T23:02:35.596608Z",
      "apogee_km": 475.81187836883237,
      "perigee_km": 474.3839383433278,
      "latitude_deg": 1.0284382384859144e-05,
      "longitude_deg": -159.90021888601981,
      "height_km": 476.2870830626597,
      "semi_major_axis_km": 6853.23490835608,
      "eccentricity": 0.00010418,
      "inclination_deg": 53.1609,
      "raan_deg": 17.0494,
      "arg_perigee_deg": 114.0147,
      "mean_anomaly_deg": 246.0963,
      "mean_motion_rev_day": 15.3023924
    },
    {
      "epoch": "2026-04-03T05:18:48.129696Z",
      "apogee_km": 475.7393719103002,
      "perigee_km": 474.479745192838,
      "latitude_deg": 3.660083111926555e-05,
      "longitude_deg": 104.57687369980496,
      "height_km": 475.9471741304809,
      "semi_major_axis_km": 6853.246558551569,
      "eccentricity": 9.19e-05,
      "inclination_deg": 53.1609,
      "raan_deg": 15.8362,
      "arg_perigee_deg": 84.4379,
      "mean_anomaly_deg": 275.6727,
      "mean_motion_rev_day": 15.30235338
    },
    {
      "epoch": "2026-04-04T18:56:06.152640Z",
      "apogee_km": 476.23552186760116,
      "perigee_km": 474.03425093768783,
      "latitude_deg": -8.955782777052419e-06,
      "longitude_deg": -108.57302385940494,
      "height_km": 475.63319086887543,
      "semi_major_axis_km": 6853.271886402644,
      "eccentricity": 0.0001606,
      "inclination_deg": 53.1601,
      "raan_deg": 8.5565,
      "arg_perigee_deg": 68.7179,
      "mean_anomaly_deg": 291.3993,
      "mean_motion_rev_day": 15.30226855
    },
    {
      "epoch": "2026-04-05T10:36:38.611584Z",
      "apogee_km": 475.84086196378485,
      "perigee_km": 474.5679223336065,
      "latitude_deg": -6.45874598941014e-05,
      "longitude_deg": 12.613710673737248,
      "height_km": 475.8431727563781,
      "semi_major_axis_km": 6853.341392148695,
      "eccentricity": 9.287e-05,
      "inclination_deg": 53.1602,
      "raan_deg": 5.5223,
      "arg_perigee_deg": 65.8992,
      "mean_anomaly_deg": 294.2105,
      "mean_motion_rev_day": 15.30203576
    },
    {
      "epoch": "2026-04-06T03:51:13.268736Z",
      "apogee_km": 475.7129625824082,
      "perigee_km": 474.55654150696955,
      "latitude_deg": -1.3539791307343554e-05,
      "longitude_deg": 109.92329929083854,
      "height_km": 475.76367884750283,
      "semi_major_axis_km": 6853.271752044689,
      "eccentricity": 8.437e-05,
      "inclination_deg": 53.1601,
      "raan_deg": 2.1844,
      "arg_perigee_deg": 62.1769,
      "mean_anomaly_deg": 297.9317,
      "mean_motion_rev_day": 15.302269
    }
  ]
}